[{"OBJECT_NAME":"BLOCK DM-SL R/B","OBJECT_ID":"2009-067B","EPOCH":"2026-04-26T06:46:53.261760","MEAN_MOTION":1.73594822,"ECCENTRICITY":0.443237,"INCLINATION":12.6558,"RA_OF_ASC_NODE":311.1381,"ARG_OF_PERICENTER":148.7496,"MEAN_ANOMALY":273.4274,"EPHEMERIS_TYPE":0,"CLASSIFICATION_TYPE":"U","NORAD_CAT_ID":36107,"ELEMENT_SET_NO":999,"REV_AT_EPOCH":10402,"BSTAR":0,"MEAN_MOTION_DOT":-9.9e-7,"MEAN_MOTION_DDOT":0},{"OBJECT_NAME":"WGS F3 (USA 211)","OBJECT_ID":"2009-068A","EPOCH":"2026-04-26T12:57:51.978816","MEAN_MOTION":1.00270564,"ECCENTRICITY":7.6e-6,"INCLINATION":0.3919,"RA_OF_ASC_NODE":85.4239,"ARG_OF_PERICENTER":358.4808,"MEAN_ANOMALY":195.1069,"EPHEMERIS_TYPE":0,"CLASSIFICATION_TYPE":"U","NORAD_CAT_ID":36108,"ELEMENT_SET_NO":999,"REV_AT_EPOCH":4607,"BSTAR":0,"MEAN_MOTION_DOT":5.2e-7,"MEAN_MOTION_DDOT":0},{"OBJECT_NAME":"DELTA 4 R/B","OBJECT_ID":"2009-068B","EPOCH":"2026-04-26T09:52:53.040000","MEAN_MOTION":1.19265093,"ECCENTRICITY":0.8169883,"INCLINATION":24.2216,"RA_OF_ASC_NODE":306.1045,"ARG_OF_PERICENTER":181.9029,"MEAN_ANOMALY":197.226,"EPHEMERIS_TYPE":0,"CLASSIFICATION_TYPE":"U","NORAD_CAT_ID":36109,"ELEMENT_SET_NO":999,"REV_AT_EPOCH":7108,"BSTAR":0.00093056,"MEAN_MOTION_DOT":3.7e-7,"MEAN_MOTION_DDOT":0},{"OBJECT_NAME":"DIRECTV 12","OBJECT_ID":"2009-075A","EPOCH":"2026-04-26T11:22:07.659264","MEAN_MOTION":1.00271349,"ECCENTRICITY":1.55e-5,"INCLINATION":0.0412,"RA_OF_ASC_NODE":79.8696,"ARG_OF_PERICENTER":334.0668,"MEAN_ANOMALY":228.3418,"EPHEMERIS_TYPE":0,"CLASSIFICATION_TYPE":"U","NORAD_CAT_ID":36131,"ELEMENT_SET_NO":999,"REV_AT_EPOCH":4603,"BSTAR":0,"MEAN_MOTION_DOT":-1.16e-6,"MEAN_MOTION_DDOT":0},{"OBJECT_NAME":"BEIDOU-2 G1","OBJECT_ID":"2010-001A","EPOCH":"2026-04-26T13:29:20.256864","MEAN_MOTION":1.00269216,"ECCENTRICITY":0.0003626,"INCLINATION":4.1749,"RA_OF_ASC_NODE":60.5468,"ARG_OF_PERICENTER":295.2294,"MEAN_ANOMALY":201.5803,"EPHEMERIS_TYPE":0,"CLASSIFICATION_TYPE":"U","NORAD_CAT_ID":36287,"ELEMENT_SET_NO":999,"REV_AT_EPOCH":5965,"BSTAR":0,"MEAN_MOTION_DOT":-2.89e-6,"MEAN_MOTION_DDOT":0},{"OBJECT_NAME":"BREEZE-M R/B","OBJECT_ID":"2010-002B","EPOCH":"2026-04-26T06:22:10.630848","MEAN_MOTION":1.04041344,"ECCENTRICITY":0.0211859,"INCLINATION":10.8109,"RA_OF_ASC_NODE":36.9183,"ARG_OF_PERICENTER":253.9621,"MEAN_ANOMALY":306.9915,"EPHEMERIS_TYPE":0,"CLASSIFICATION_TYPE":"U","NORAD_CAT_ID":36359,"ELEMENT_SET_NO":999,"REV_AT_EPOCH":6168,"BSTAR":0,"MEAN_MOTION_DOT":-2.09e-6,"MEAN_MOTION_DDOT":0},{"OBJECT_NAME":"SDO","OBJECT_ID":"2010-005A","EPOCH":"2026-04-25T09:58:43.614048","MEAN_MOTION":1.0027261,"ECCENTRICITY":0.00011198,"INCLINATION":34.5445,"RA_OF_ASC_NODE":87.1361,"ARG_OF_PERICENTER":34.5839,"MEAN_ANOMALY":139.6162,"EPHEMERIS_TYPE":0,"CLASSIFICATION_TYPE":"U","NORAD_CAT_ID":36395,"ELEMENT_SET_NO":999,"REV_AT_EPOCH":5953,"BSTAR":0,"MEAN_MOTION_DOT":-6.0e-7,"MEAN_MOTION_DDOT":0},{"OBJECT_NAME":"INTELSAT 16 (IS-16)","OBJECT_ID":"2010-006A","EPOCH":"2026-04-26T11:29:36.940128","MEAN_MOTION":1.00270165,"ECCENTRICITY":0.0002039,"INCLINATION":0.0176,"RA_OF_ASC_NODE":279.868,"ARG_OF_PERICENTER":145.6722,"MEAN_ANOMALY":245.1504,"EPHEMERIS_TYPE":0,"CLASSIFICATION_TYPE":"U","NORAD_CAT_ID":36397,"ELEMENT_SET_NO":999,"REV_AT_EPOCH":5913,"BSTAR":0,"MEAN_MOTION_DOT":-2.57e-6,"MEAN_MOTION_DDOT":0},{"OBJECT_NAME":"BREEZE-M DEB [TANK]","OBJECT_ID":"2010-006C","EPOCH":"2026-04-25T07:09:19.982016","MEAN_MOTION":2.26680759,"ECCENTRICITY":0.71968472,"INCLINATION":46.3338,"RA_OF_ASC_NODE":349.8753,"ARG_OF_PERICENTER":197.303,"MEAN_ANOMALY":111.4885,"EPHEMERIS_TYPE":0,"CLASSIFICATION_TYPE":"U","NORAD_CAT_ID":36399,"ELEMENT_SET_NO":999,"REV_AT_EPOCH":13276,"BSTAR":0.00085373504,"MEAN_MOTION_DOT":-1.17e-6,"MEAN_MOTION_DDOT":0},{"OBJECT_NAME":"EWS-G2 (GOES 15)","OBJECT_ID":"2010-008A","EPOCH":"2026-04-26T12:09:25.621920","MEAN_MOTION":1.00272457,"ECCENTRICITY":0.0003975,"INCLINATION":1.1417,"RA_OF_ASC_NODE":83.7896,"ARG_OF_PERICENTER":23.7725,"MEAN_ANOMALY":352.5592,"EPHEMERIS_TYPE":0,"CLASSIFICATION_TYPE":"U","NORAD_CAT_ID":36411,"ELEMENT_SET_NO":999,"REV_AT_EPOCH":5912,"BSTAR":0,"MEAN_MOTION_DOT":1.1e-7,"MEAN_MOTION_DDOT":0},{"OBJECT_NAME":"ECHOSTAR 14","OBJECT_ID":"2010-010A","EPOCH":"2026-04-26T12:29:35.587392","MEAN_MOTION":1.00270413,"ECCENTRICITY":0.0001712,"INCLINATION":0.0188,"RA_OF_ASC_NODE":250.4958,"ARG_OF_PERICENTER":158.9339,"MEAN_ANOMALY":233.5888,"EPHEMERIS_TYPE":0,"CLASSIFICATION_TYPE":"U","NORAD_CAT_ID":36499,"ELEMENT_SET_NO":999,"REV_AT_EPOCH":4603,"BSTAR":0,"MEAN_MOTION_DOT":-1.2e-7,"MEAN_MOTION_DDOT":0},{"OBJECT_NAME":"SES-1","OBJECT_ID":"2010-016A","EPOCH":"2026-04-26T11:22:30.123264","MEAN_MOTION":1.00272,"ECCENTRICITY":0.0002591,"INCLINATION":0.024,"RA_OF_ASC_NODE":289.3603,"ARG_OF_PERICENTER":105.6045,"MEAN_ANOMALY":249.1318,"EPHEMERIS_TYPE":0,"CLASSIFICATION_TYPE":"U","NORAD_CAT_ID":36516,"ELEMENT_SET_NO":999,"REV_AT_EPOCH":5851,"BSTAR":0,"MEAN_MOTION_DOT":-1.27e-6,"MEAN_MOTION_DDOT":0},{"OBJECT_NAME":"ASTRA 3B","OBJECT_ID":"2010-021A","EPOCH":"2026-04-26T11:58:04.211040","MEAN_MOTION":1.00269039,"ECCENTRICITY":0.0003905,"INCLINATION":1.3364,"RA_OF_ASC_NODE":84.1416,"ARG_OF_PERICENTER":319.859,"MEAN_ANOMALY":13.5384,"EPHEMERIS_TYPE":0,"CLASSIFICATION_TYPE":"U","NORAD_CAT_ID":36581,"ELEMENT_SET_NO":999,"REV_AT_EPOCH":5834,"BSTAR":0,"MEAN_MOTION_DOT":1.26e-6,"MEAN_MOTION_DDOT":0},{"OBJECT_NAME":"COMSATBW-2","OBJECT_ID":"2010-021B","EPOCH":"2026-04-26T07:41:38.639904","MEAN_MOTION":1.00268743,"ECCENTRICITY":0.0002632,"INCLINATION":0.0158,"RA_OF_ASC_NODE":242.2319,"ARG_OF_PERICENTER":161.9168,"MEAN_ANOMALY":298.7636,"EPHEMERIS_TYPE":0,"CLASSIFICATION_TYPE":"U","NORAD_CAT_ID":36582,"ELEMENT_SET_NO":999,"REV_AT_EPOCH":5843,"BSTAR":0,"MEAN_MOTION_DOT":7.5e-7,"MEAN_MOTION_DDOT":0},{"OBJECT_NAME":"BREEZE-M R/B","OBJECT_ID":"2009-075B","EPOCH":"2026-04-25T18:52:46.449408","MEAN_MOTION":1.99416175,"ECCENTRICITY":0.57635057,"INCLINATION":21.6361,"RA_OF_ASC_NODE":323.7266,"ARG_OF_PERICENTER":92.4841,"MEAN_ANOMALY":2.4988,"EPHEMERIS_TYPE":0,"CLASSIFICATION_TYPE":"U","NORAD_CAT_ID":36587,"ELEMENT_SET_NO":999,"REV_AT_EPOCH":11606,"BSTAR":0,"MEAN_MOTION_DOT":-6.2e-7,"MEAN_MOTION_DDOT":0},{"OBJECT_NAME":"BEIDOU-2 G3","OBJECT_ID":"2010-024A","EPOCH":"2026-04-26T08:48:48.894912","MEAN_MOTION":1.00269965,"ECCENTRICITY":0.0008549,"INCLINATION":4.3954,"RA_OF_ASC_NODE":61.7181,"ARG_OF_PERICENTER":336.9021,"MEAN_ANOMALY":27.591,"EPHEMERIS_TYPE":0,"CLASSIFICATION_TYPE":"U","NORAD_CAT_ID":36590,"ELEMENT_SET_NO":999,"REV_AT_EPOCH":5825,"BSTAR":0,"MEAN_MOTION_DOT":-1.44e-6,"MEAN_MOTION_DDOT":0},{"OBJECT_NAME":"BADR-5","OBJECT_ID":"2010-025A","EPOCH":"2026-04-26T11:58:41.653344","MEAN_MOTION":1.00272695,"ECCENTRICITY":0.0003111,"INCLINATION":0.0641,"RA_OF_ASC_NODE":101.5861,"ARG_OF_PERICENTER":337.4221,"MEAN_ANOMALY":341.1432,"EPHEMERIS_TYPE":0,"CLASSIFICATION_TYPE":"U","NORAD_CAT_ID":36592,"ELEMENT_SET_NO":999,"REV_AT_EPOCH":5269,"BSTAR":0,"MEAN_MOTION_DOT":1.33e-6,"MEAN_MOTION_DDOT":0}]
