BLOCK DM-SL R/B         
1 36107U 09067B   26116.28256090 -.00000099  00000+0  00000+0 0  9994
2 36107  12.6558 311.1381 4432370 148.7496 273.4274  1.73594822104023
WGS F3 (USA 211)        
1 36108U 09068A   26116.54018494  .00000052  00000+0  00000+0 0  9997
2 36108   0.3919  85.4239 0000076 358.4808 195.1069  1.00270564 46075
DELTA 4 R/B             
1 36109U 09068B   26116.41172500  .00000037  00000+0  93056-3 0  9993
2 36109  24.2216 306.1045 8169883 181.9029 197.2260  1.19265093 71089
DIRECTV 12              
1 36131U 09075A   26116.47369976 -.00000116  00000+0  00000+0 0  9999
2 36131   0.0412  79.8696 0000155 334.0668 228.3418  1.00271349 46037
BEIDOU-2 G1             
1 36287U 10001A   26116.56204001 -.00000289  00000+0  00000+0 0  9990
2 36287   4.1749  60.5468 0003626 295.2294 201.5803  1.00269216 59653
BREEZE-M R/B            
1 36359U 10002B   26116.26540082 -.00000209  00000+0  00000+0 0  9992
2 36359  10.8109  36.9183 0211859 253.9621 306.9915  1.04041344 61686
SDO                     
1 36395U 10005A   26115.41578257 -.00000060  00000+0  00000+0 0  9991
2 36395  34.5445  87.1361 0001119  34.5839 139.6162  1.00272610 59532
INTELSAT 16 (IS-16)     
1 36397U 10006A   26116.47889977 -.00000257  00000+0  00000+0 0  9993
2 36397   0.0176 279.8680 0002039 145.6722 245.1504  1.00270165 59136
BREEZE-M DEB [TANK]     
1 36399U 10006C   26115.29814794 -.00000117  00000+0  85374-3 0  9995
2 36399  46.3338 349.8753 7196847 197.3030 111.4885  2.26680759132765
EWS-G2 (GOES 15)        
1 36411U 10008A   26116.50654655  .00000011  00000+0  00000+0 0  9996
2 36411   1.1417  83.7896 0003975  23.7725 352.5592  1.00272457 59128
ECHOSTAR 14             
1 36499U 10010A   26116.52055078 -.00000012  00000+0  00000+0 0  9993
2 36499   0.0188 250.4958 0001712 158.9339 233.5888  1.00270413 46030
SES-1                   
1 36516U 10016A   26116.47395976 -.00000127  00000+0  00000+0 0  9994
2 36516   0.0240 289.3603 0002591 105.6045 249.1318  1.00272000 58517
ASTRA 3B                
1 36581U 10021A   26116.49865985  .00000126  00000+0  00000+0 0  9994
2 36581   1.3364  84.1416 0003905 319.8590  13.5384  1.00269039 58342
COMSATBW-2              
1 36582U 10021B   26116.32058611  .00000075  00000+0  00000+0 0  9990
2 36582   0.0158 242.2319 0002632 161.9168 298.7636  1.00268743 58430
BREEZE-M R/B            
1 36587U 09075B   26115.78664872 -.00000062  00000+0  00000+0 0  9990
2 36587  21.6361 323.7266 5763505  92.4841   2.4988  1.99416175116066
BEIDOU-2 G3             
1 36590U 10024A   26116.36723258 -.00000144  00000+0  00000+0 0  9990
2 36590   4.3954  61.7181 0008549 336.9021  27.5910  1.00269965 58256
BADR-5                  
1 36592U 10025A   26116.49909321  .00000133  00000+0  00000+0 0  9991
2 36592   0.0641 101.5861 0003111 337.4221 341.1432  1.00272695 52690
